{
  "norad_id": 67306,
  "name": "STARLINK-36488",
  "history": [
    {
      "epoch": "2026-03-28T16:54:06.416352Z",
      "apogee_km": 483.9634286004548,
      "perigee_km": 481.9221201459832,
      "latitude_deg": -2.235430246267012e-06,
      "longitude_deg": 138.52169543101905,
      "height_km": 482.82352792515053,
      "semi_major_axis_km": 6861.079774373218,
      "eccentricity": 0.00014876,
      "inclination_deg": 42.9988,
      "raan_deg": 218.1693,
      "arg_perigee_deg": 264.1439,
      "mean_anomaly_deg": 95.9243,
      "mean_motion_rev_day": 15.27615508
    },
    {
      "epoch": "2026-03-29T08:35:40.665984Z",
      "apogee_km": 483.2208960573789,
      "perigee_km": 482.7581816835973,
      "latitude_deg": 4.9788382918105866e-06,
      "longitude_deg": -101.20828593869768,
      "height_km": 482.85411418154376,
      "semi_major_axis_km": 6861.126538870488,
      "eccentricity": 3.372e-05,
      "inclination_deg": 42.9978,
      "raan_deg": 214.4765,
      "arg_perigee_deg": 247.3444,
      "mean_anomaly_deg": 112.7372,
      "mean_motion_rev_day": 15.2759989
    },
    {
      "epoch": "2026-03-30T14:24:39.393216Z",
      "apogee_km": 483.4249251311676,
      "perigee_km": 482.5777117716052,
      "latitude_deg": 1.6841630247777514e-05,
      "longitude_deg": 163.30601846520977,
      "height_km": 482.67771674684116,
      "semi_major_axis_km": 6861.138318451386,
      "eccentricity": 6.174e-05,
      "inclination_deg": 42.997,
      "raan_deg": 207.46,
      "arg_perigee_deg": 283.5535,
      "mean_anomaly_deg": 76.5248,
      "mean_motion_rev_day": 15.27595956
    },
    {
      "epoch": "2026-03-30T15:58:48.745344Z",
      "apogee_km": 483.8674838569759,
      "perigee_km": 482.1338115961489,
      "latitude_deg": 9.233056528922097e-06,
      "longitude_deg": 139.3339958228362,
      "height_km": 482.7986118197874,
      "semi_major_axis_km": 6861.137647726562,
      "eccentricity": 0.00012634,
      "inclination_deg": 42.9994,
      "raan_deg": 207.0914,
      "arg_perigee_deg": 268.5821,
      "mean_anomaly_deg": 91.4886,
      "mean_motion_rev_day": 15.2759618
    },
    {
      "epoch": "2026-03-31T15:31:09.075648Z",
      "apogee_km": 484.0056759430654,
      "perigee_km": 481.8266054655778,
      "latitude_deg": -2.1495393220157614e-05,
      "longitude_deg": 139.74324316232395,
      "height_km": 482.83900980821903,
      "semi_major_axis_km": 6861.053140704322,
      "eccentricity": 0.0001588,
      "inclination_deg": 43.0002,
      "raan_deg": 201.5521,
      "arg_perigee_deg": 262.2977,
      "mean_anomaly_deg": 97.7694,
      "mean_motion_rev_day": 15.27624403
    },
    {
      "epoch": "2026-04-01T13:29:20.867712Z",
      "apogee_km": 483.511649393884,
      "perigee_km": 482.4907120325943,
      "latitude_deg": -4.955719643839364e-06,
      "longitude_deg": 164.12345492281457,
      "height_km": 482.7093314430776,
      "semi_major_axis_km": 6861.138180713239,
      "eccentricity": 7.44e-05,
      "inclination_deg": 42.999,
      "raan_deg": 196.3837,
      "arg_perigee_deg": 277.6404,
      "mean_anomaly_deg": 82.4363,
      "mean_motion_rev_day": 15.27596002
    },
    {
      "epoch": "2026-04-02T20:00:01.999008Z",
      "apogee_km": 484.1477310119926,
      "perigee_km": 482.0728898253219,
      "latitude_deg": 13.800494163584517,
      "longitude_deg": -137.16526872649467,
      "height_km": 482.56005730130335,
      "semi_major_axis_km": 6861.247310418657,
      "eccentricity": 0.0001512,
      "inclination_deg": 43.0011,
      "raan_deg": 189.2048,
      "arg_perigee_deg": 273.4443,
      "mean_anomaly_deg": 246.1386,
      "mean_motion_rev_day": 15.27559557
    }
  ]
}